start=new Date('2021-10-22T00:00:00.000Z').valueOf();
sats=[{"RCS_SIZE":"LARGE","ECCENTRICITY":"0.00015280","CENTER_NAME":"EARTH","PERIOD":"95.592","OBJECT_NAME":"STARLINK-1574","RA_OF_ASC_NODE":"99.1556","EPHEMERIS_TYPE":"0","TIME_SYSTEM":"UTC","APOAPSIS":"548.284","MEAN_MOTION_DOT":"0.00001505","REV_AT_EPOCH":"6784","TLE_LINE1":"1 46062U 20055AM  21294.72256246  .00001505  00000-0  11991-3 0  9997","DECAY_DATE":null,"ARG_OF_PERICENTER":"93.2313","TLE_LINE2":"2 46062  53.0551  99.1556 0001528  93.2313 266.8851 15.06396086 67846","MEAN_MOTION":"15.06396086","SEMIMAJOR_AXIS":"6925.361","LAUNCH_DATE":"2020-08-07","EPOCH":"2021-10-21T17:20:29.396544","ELEMENT_SET_NO":"999","PERIAPSIS":"546.167","CLASSIFICATION_TYPE":"U","NORAD_CAT_ID":"46062","COUNTRY_CODE":"US","OBJECT_TYPE":"PAYLOAD","REF_FRAME":"TEME","MEAN_ELEMENT_THEORY":"SGP4","INCLINATION":"53.0551","BSTAR":"0.00011991000000","OBJECT_ID":"2020-055AM","FILE":"3176920","SITE":"AFETR","MEAN_ANOMALY":"266.8851","GP_ID":"187838237","MEAN_MOTION_DDOT":"0.0000000000000"},{"RCS_SIZE":"LARGE","ECCENTRICITY":"0.00014500","CENTER_NAME":"EARTH","PERIOD":"95.592","OBJECT_NAME":"STARLINK-1577","EPHEMERIS_TYPE":"0","TIME_SYSTEM":"UTC","RA_OF_ASC_NODE":"99.1682","APOAPSIS":"548.221","MEAN_MOTION_DOT":"0.00000658","REV_AT_EPOCH":"6787","TLE_LINE1":"1 46063U 20055AN  21294.71886375  .00000658  00000-0  63093-4 0  9998","DECAY_DATE":null,"TLE_LINE2":"2 46063  53.0546  99.1682 0001450  85.3424 274.7731 15.06398849 67877","ARG_OF_PERICENTER":"85.3424","MEAN_MOTION":"15.06398849","LAUNCH_DATE":"2020-08-07","SEMIMAJOR_AXIS":"6925.352","EPOCH":"2021-10-21T17:15:09.828000","ELEMENT_SET_NO":"999","PERIAPSIS":"546.213","CLASSIFICATION_TYPE":"U","COUNTRY_CODE":"US","NORAD_CAT_ID":"46063","OBJECT_TYPE":"PAYLOAD","REF_FRAME":"TEME","MEAN_ELEMENT_THEORY":"SGP4","BSTAR":"0.00006309300000","INCLINATION":"53.0546","OBJECT_ID":"2020-055AN","SITE":"AFETR","FILE":"3176920","MEAN_ANOMALY":"274.7731","GP_ID":"187837988","MEAN_MOTION_DDOT":"0.0000000000000"},{"CLASSIFICATION_TYPE":"U","OBJECT_TYPE":"PAYLOAD","COUNTRY_CODE":"US","NORAD_CAT_ID":"46064","MEAN_ELEMENT_THEORY":"SGP4","REF_FRAME":"TEME","BSTAR":"0.00003014900000","INCLINATION":"53.0537","OBJECT_ID":"2020-055AP","MEAN_ANOMALY":"267.2194","SITE":"AFETR","FILE":"3176920","GP_ID":"187839239","MEAN_MOTION_DDOT":"0.0000000000000","RCS_SIZE":"LARGE","ECCENTRICITY":"0.00013560","PERIOD":"95.592","CENTER_NAME":"EARTH","OBJECT_NAME":"STARLINK-1583","EPHEMERIS_TYPE":"0","TIME_SYSTEM":"UTC","RA_OF_ASC_NODE":"99.0100","TLE_LINE1":"1 46064U 20055AP  21294.75204107  .00000168  00000-0  30149-4 0  9992","REV_AT_EPOCH":"6788","APOAPSIS":"548.146","MEAN_MOTION_DOT":"0.00000168","TLE_LINE2":"2 46064  53.0537  99.0100 0001356  92.8950 267.2194 15.06402298 67889","MEAN_MOTION":"15.06402298","ARG_OF_PERICENTER":"92.8950","DECAY_DATE":null,"ELEMENT_SET_NO":"999","PERIAPSIS":"546.267","EPOCH":"2021-10-21T18:02:56.348448","LAUNCH_DATE":"2020-08-07","SEMIMAJOR_AXIS":"6925.342"},{"MEAN_ANOMALY":"269.5503","SITE":"AFETR","FILE":"3176920","OBJECT_ID":"2020-055AQ","MEAN_MOTION_DDOT":"0.0000000000000","GP_ID":"187839484","OBJECT_TYPE":"PAYLOAD","COUNTRY_CODE":"US","NORAD_CAT_ID":"46065","CLASSIFICATION_TYPE":"U","BSTAR":"-0.00002236300000","INCLINATION":"53.0550","MEAN_ELEMENT_THEORY":"SGP4","REF_FRAME":"TEME","REV_AT_EPOCH":"6813","TLE_LINE1":"1 46065U 20055AQ  21294.67922942 -.00000615  00000-0 -22363-4 0  9996","APOAPSIS":"548.503","MEAN_MOTION_DOT":"-0.00000615","TIME_SYSTEM":"UTC","EPHEMERIS_TYPE":"0","RA_OF_ASC_NODE":"79.3799","ELEMENT_SET_NO":"999","PERIAPSIS":"545.930","LAUNCH_DATE":"2020-08-07","SEMIMAJOR_AXIS":"6925.352","EPOCH":"2021-10-21T16:18:05.421888","TLE_LINE2":"2 46065  53.0550  79.3799 0001858  90.5699 269.5503 15.06399030 68139","MEAN_MOTION":"15.06399030","ARG_OF_PERICENTER":"90.5699","DECAY_DATE":null,"ECCENTRICITY":"0.00018580","RCS_SIZE":"LARGE","OBJECT_NAME":"STARLINK-1515","PERIOD":"95.592","CENTER_NAME":"EARTH"},{"DECAY_DATE":null,"TLE_LINE2":"2 46066  53.0550  79.3261 0001338  97.2466 262.8675 15.06397483 68140","MEAN_MOTION":"15.06397483","ARG_OF_PERICENTER":"97.2466","SEMIMAJOR_AXIS":"6925.356","LAUNCH_DATE":"2020-08-07","EPOCH":"2021-10-21T16:24:44.720352","ELEMENT_SET_NO":"999","PERIAPSIS":"546.295","RA_OF_ASC_NODE":"79.3261","EPHEMERIS_TYPE":"0","TIME_SYSTEM":"UTC","MEAN_MOTION_DOT":"0.00000931","APOAPSIS":"548.148","TLE_LINE1":"1 46066U 20055AR  21294.68385093  .00000931  00000-0  81381-4 0  9992","REV_AT_EPOCH":"6814","CENTER_NAME":"EARTH","PERIOD":"95.592","OBJECT_NAME":"STARLINK-1525","RCS_SIZE":"LARGE","ECCENTRICITY":"0.00013380","GP_ID":"187837738","MEAN_MOTION_DDOT":"0.0000000000000","OBJECT_ID":"2020-055AR","FILE":"3176920","SITE":"AFETR","MEAN_ANOMALY":"262.8675","REF_FRAME":"TEME","MEAN_ELEMENT_THEORY":"SGP4","INCLINATION":"53.0550","BSTAR":"0.00008138100000","CLASSIFICATION_TYPE":"U","NORAD_CAT_ID":"46066","COUNTRY_CODE":"US","OBJECT_TYPE":"PAYLOAD"},{"ECCENTRICITY":"0.00011900","RCS_SIZE":"LARGE","OBJECT_NAME":"STARLINK-1529","PERIOD":"95.592","CENTER_NAME":"EARTH","REV_AT_EPOCH":"6818","TLE_LINE1":"1 46067U 20055AS  21294.88658608 -.00000305  00000-0 -15975-5 0  9994","APOAPSIS":"548.052","MEAN_MOTION_DOT":"-0.00000305","TIME_SYSTEM":"UTC","EPHEMERIS_TYPE":"0","RA_OF_ASC_NODE":"78.4198","PERIAPSIS":"546.403","ELEMENT_SET_NO":"999","SEMIMAJOR_AXIS":"6925.362","LAUNCH_DATE":"2020-08-07","EPOCH":"2021-10-21T21:16:41.037312","ARG_OF_PERICENTER":"104.4154","TLE_LINE2":"2 46067  53.0545  78.4198 0001190 104.4154 255.6967 15.06395479 68186","MEAN_MOTION":"15.06395479","DECAY_DATE":null,"OBJECT_TYPE":"PAYLOAD","COUNTRY_CODE":"US","NORAD_CAT_ID":"46067","CLASSIFICATION_TYPE":"U","BSTAR":"-0.00000159750000","INCLINATION":"53.0545","MEAN_ELEMENT_THEORY":"SGP4","REF_FRAME":"TEME","MEAN_ANOMALY":"255.6967","SITE":"AFETR","FILE":"3176920","OBJECT_ID":"2020-055AS","MEAN_MOTION_DDOT":"0.0000000000000","GP_ID":"187838488"},{"MEAN_ELEMENT_THEORY":"SGP4","REF_FRAME":"TEME","INCLINATION":"53.0531","BSTAR":"-0.00026639000000","CLASSIFICATION_TYPE":"U","OBJECT_TYPE":"PAYLOAD","NORAD_CAT_ID":"46068","COUNTRY_CODE":"US","GP_ID":"187838740","MEAN_MOTION_DDOT":"0.0000000000000","OBJECT_ID":"2020-055AT","MEAN_ANOMALY":"269.5607","FILE":"3176920","SITE":"AFETR","PERIOD":"95.592","CENTER_NAME":"EARTH","OBJECT_NAME":"STARLINK-1532","RCS_SIZE":"LARGE","ECCENTRICITY":"0.00013400","MEAN_MOTION":"15.06395464","TLE_LINE2":"2 46068  53.0531  78.6621 0001340  90.5535 269.5607 15.06395464 68178","ARG_OF_PERICENTER":"90.5535","DECAY_DATE":null,"PERIAPSIS":"546.299","ELEMENT_SET_NO":"999","SEMIMAJOR_AXIS":"6925.362","LAUNCH_DATE":"2020-08-07","EPOCH":"2021-10-21T19:57:03.679776","RA_OF_ASC_NODE":"78.6621","TIME_SYSTEM":"UTC","EPHEMERIS_TYPE":"0","TLE_LINE1":"1 46068U 20055AT  21294.83129259 -.00004247  00000-0 -26639-3 0  9991","REV_AT_EPOCH":"6817","APOAPSIS":"548.155","MEAN_MOTION_DOT":"-0.00004247"},{"LAUNCH_DATE":"2020-08-07","EPOCH":"2021-10-21T02:47:20.769504","SEMIMAJOR_AXIS":"6925.346","ELEMENT_SET_NO":"999","PERIAPSIS":"546.316","DECAY_DATE":null,"TLE_LINE2":"2 46069  53.0539  81.8739 0001293  96.0213 264.0924 15.06400821 68079","MEAN_MOTION":"15.06400821","ARG_OF_PERICENTER":"96.0213","APOAPSIS":"548.106","MEAN_MOTION_DOT":"-0.00000606","REV_AT_EPOCH":"6807","TLE_LINE1":"1 46069U 20055AU  21294.11621261 -.00000606  00000-0 -21813-4 0  9998","RA_OF_ASC_NODE":"81.8739","TIME_SYSTEM":"UTC","EPHEMERIS_TYPE":"0","OBJECT_NAME":"STARLINK-1533","CENTER_NAME":"EARTH","PERIOD":"95.592","ECCENTRICITY":"0.00012930","RCS_SIZE":"LARGE","MEAN_MOTION_DDOT":"0.0000000000000","GP_ID":"187809838","FILE":"3176553","SITE":"AFETR","MEAN_ANOMALY":"264.0924","OBJECT_ID":"2020-055AU","INCLINATION":"53.0539","BSTAR":"-0.00002181300000","REF_FRAME":"TEME","MEAN_ELEMENT_THEORY":"SGP4","NORAD_CAT_ID":"46069","COUNTRY_CODE":"US","OBJECT_TYPE":"PAYLOAD","CLASSIFICATION_TYPE":"U"},{"TIME_SYSTEM":"UTC","EPHEMERIS_TYPE":"0","RA_OF_ASC_NODE":"78.8292","REV_AT_EPOCH":"6817","TLE_LINE1":"1 46070U 20055AV  21294.79442822  .00000552  00000-0  55969-4 0  9995","APOAPSIS":"548.086","MEAN_MOTION_DOT":"0.00000552","TLE_LINE2":"2 46070  53.0544  78.8292 0001255  95.5373 264.5759 15.06398802 68173","ARG_OF_PERICENTER":"95.5373","MEAN_MOTION":"15.06398802","DECAY_DATE":null,"ELEMENT_SET_NO":"999","PERIAPSIS":"546.348","LAUNCH_DATE":"2020-08-07","EPOCH":"2021-10-21T19:03:58.598208","SEMIMAJOR_AXIS":"6925.352","RCS_SIZE":"LARGE","ECCENTRICITY":"0.00012550","PERIOD":"95.592","CENTER_NAME":"EARTH","OBJECT_NAME":"STARLINK-1536","OBJECT_ID":"2020-055AV","MEAN_ANOMALY":"264.5759","SITE":"AFETR","FILE":"3176920","GP_ID":"187838238","MEAN_MOTION_DDOT":"0.0000000000000","CLASSIFICATION_TYPE":"U","OBJECT_TYPE":"PAYLOAD","COUNTRY_CODE":"US","NORAD_CAT_ID":"46070","MEAN_ELEMENT_THEORY":"SGP4","REF_FRAME":"TEME","BSTAR":"0.00005596900000","INCLINATION":"53.0544"},{"DECAY_DATE":null,"MEAN_MOTION":"15.06398982","TLE_LINE2":"2 46071  53.0557  78.7556 0001457  97.0767 263.0387 15.06398982 68178","ARG_OF_PERICENTER":"97.0767","LAUNCH_DATE":"2020-08-07","SEMIMAJOR_AXIS":"6925.352","EPOCH":"2021-10-21T19:30:31.955040","ELEMENT_SET_NO":"999","PERIAPSIS":"546.208","TIME_SYSTEM":"UTC","EPHEMERIS_TYPE":"0","RA_OF_ASC_NODE":"78.7556","MEAN_MOTION_DOT":"-0.00000447","APOAPSIS":"548.226","REV_AT_EPOCH":"6817","TLE_LINE1":"1 46071U 20055AW  21294.81286985 -.00000447  00000-0 -11103-4 0  9992","CENTER_NAME":"EARTH","PERIOD":"95.592","OBJECT_NAME":"STARLINK-1538","RCS_SIZE":"LARGE","ECCENTRICITY":"0.00014570","GP_ID":"187837989","MEAN_MOTION_DDOT":"0.0000000000000","OBJECT_ID":"2020-055AW","SITE":"AFETR","FILE":"3176920","MEAN_ANOMALY":"263.0387","REF_FRAME":"TEME","MEAN_ELEMENT_THEORY":"SGP4","BSTAR":"-0.00001110300000","INCLINATION":"53.0557","CLASSIFICATION_TYPE":"U","COUNTRY_CODE":"US","NORAD_CAT_ID":"46071","OBJECT_TYPE":"PAYLOAD"}];
